STARLINK-1622
1 46128U 20057M   26090.32998225  .00096086  00000+0  84008-3 0  9993
2 46128  53.0207 117.7406 0002586 331.3561  28.7312 15.68171521310755
STARLINK-1905
1 46746U 20074H   26090.83335647  .00020566  00000+0  18541-3 0  9996
2 46746  53.0435 174.8572 0005940  14.8910 165.1694 15.68163540  5853
